[
  {
    "name": "KUIPER-00103",
    "noradId": "65141",
    "line1": "1 65141U 25171K   26158.24225916  .00000612  00000+0  10932-3 0  9992",
    "line2": "2 65141  51.8977 134.5570 0001165  88.2892 271.8204 14.79929954 45979"
  },
  {
    "name": "KUIPER-00104",
    "noradId": "65142",
    "line1": "1 65142U 25171L   26158.18820138  .00003674  00000+0  51058-3 0  9998",
    "line2": "2 65142  51.9000 122.2854 0000684  68.6453 291.4582 14.79937719 46142"
  },
  {
    "name": "KUIPER-00105",
    "noradId": "65143",
    "line1": "1 65143U 25171M   26158.21389203  .00003091  00000+0  43424-3 0  9997",
    "line2": "2 65143  51.8993 129.7789 0000742  88.7344 271.3704 14.79939364 46049"
  },
  {
    "name": "KUIPER-00106",
    "noradId": "65144",
    "line1": "1 65144U 25171N   26158.25005787  .00005167  00000+0  65127-3 0  9994",
    "line2": "2 65144  51.9015 108.4612 0007271  37.4917 216.1916 14.83358698  5717"
  },
  {
    "name": "KUIPER-00107",
    "noradId": "65145",
    "line1": "1 65145U 25171P   26158.16544737  .00003682  00000+0  51207-3 0  9992",
    "line2": "2 65145  51.8992 112.4347 0000451  74.3452 285.7560 14.79902542 46280"
  },
  {
    "name": "KUIPER-00108",
    "noradId": "65146",
    "line1": "1 65146U 25171Q   26158.18552119  .00003223  00000+0  45154-3 0  9993",
    "line2": "2 65146  51.9014 124.8758 0000712  62.0340 298.0694 14.79936291 46115"
  },
  {
    "name": "KUIPER-00109",
    "noradId": "65147",
    "line1": "1 65147U 25171R   26158.15713162 -.00000432  00000+0 -27637-4 0  9996",
    "line2": "2 65147  51.8997 119.9433 0000656  93.6535 266.4503 14.79921216 46178"
  },
  {
    "name": "KUIPER-00110",
    "noradId": "65148",
    "line1": "1 65148U 25171S   26157.63719624  .00000762  00000+0  12888-3 0  9993",
    "line2": "2 65148  51.8987 134.8096 0000553  95.2637 264.8389 14.79932704 45915"
  },
  {
    "name": "KUIPER-00111",
    "noradId": "65149",
    "line1": "1 65149U 25171T   26157.66552307 -.00001047  00000+0 -10841-3 0  9996",
    "line2": "2 65149  51.8956 139.5717 0000950  82.1460 277.9610 14.79929289 45853"
  },
  {
    "name": "KUIPER-00112",
    "noradId": "65150",
    "line1": "1 65150U 25171U   26156.23227346  .00034216  00000+0  45875-2 0  9998",
    "line2": "2 65150  51.9003 128.5038 0001117  68.8914 291.2167 14.79066901 45886"
  },
  {
    "name": "KUIPER-00114",
    "noradId": "65151",
    "line1": "1 65151U 25171V   26158.20310401  .00002819  00000+0  39866-3 0  9991",
    "line2": "2 65151  51.8984 139.7698 0000580  63.0569 297.0452 14.79936095 45898"
  },
  {
    "name": "KUIPER-00115",
    "noradId": "65152",
    "line1": "1 65152U 25171W   26158.21116279 -.00000479  00000+0 -33772-4 0  9993",
    "line2": "2 65152  51.9012 132.2316 0000903  95.0529 265.0537 14.79918926 46003"
  },
  {
    "name": "KUIPER-00116",
    "noradId": "65153",
    "line1": "1 65153U 25171X   26158.23956901  .00002503  00000+0  35710-3 0  9991",
    "line2": "2 65153  51.8993 137.1417 0000558  53.2988 306.8025 14.79939497 45931"
  },
  {
    "name": "KUIPER-00118",
    "noradId": "65154",
    "line1": "1 65154U 25171Y   26158.23685819  .00003194  00000+0  44766-3 0  9997",
    "line2": "2 65154  51.8989 139.6067 0000634  85.8573 274.2462 14.79938574 45906"
  },
  {
    "name": "KUIPER-00119",
    "noradId": "65155",
    "line1": "1 65155U 25171Z   26158.18282155  .00003173  00000+0  44503-3 0  9994",
    "line2": "2 65155  51.9003 127.4355 0000861 104.1087 255.9972 14.79934863 46064"
  },
  {
    "name": "KUIPER-00120",
    "noradId": "65762",
    "line1": "1 65762U 25217A   26157.33914913  .00001660  00000+0  24662-3 0  9992",
    "line2": "2 65762  51.8999  21.0509 0000537 105.7254 254.3767 14.79937271 37863"
  },
  {
    "name": "KUIPER-00132",
    "noradId": "65763",
    "line1": "1 65763U 25217B   26157.64986832  .00033735  00000+0  77535-3 0  9991",
    "line2": "2 65763  51.8567 290.7091 0007545 281.3025  78.7116 15.42333353 39140"
  },
  {
    "name": "KUIPER-00133",
    "noradId": "65764",
    "line1": "1 65764U 25217C   26157.30539253  .00000891  00000+0  14583-3 0  9997",
    "line2": "2 65764  51.9032  21.2925 0000866 102.8508 257.2552 14.79931503 37869"
  },
  {
    "name": "KUIPER-00139",
    "noradId": "65765",
    "line1": "1 65765U 25217D   26158.25005787 -.00040368  00000+0 -51586-2 0  9991",
    "line2": "2 65765  51.8992 344.4513 0002289 219.7412  23.0552 14.81045361  5450"
  },
  {
    "name": "KUIPER-00142",
    "noradId": "65766",
    "line1": "1 65766U 25217E   26157.29050124  .00002111  00000+0  30584-3 0  9998",
    "line2": "2 65766  51.9009   3.7936 0000484 107.1124 252.9892 14.79938213 38102"
  },
  {
    "name": "KUIPER-00145",
    "noradId": "65767",
    "line1": "1 65767U 25217F   26158.30075893  .00002071  00000+0  30059-3 0  9994",
    "line2": "2 65767  51.9014   1.8455 0000823  88.5738 271.5319 14.79933036 38215"
  },
  {
    "name": "KUIPER-00147",
    "noradId": "65768",
    "line1": "1 65768U 25217G   26158.26429307  .00000714  00000+0  12265-3 0  9994",
    "line2": "2 65768  51.9017   4.4913 0000944 103.9328 256.1739 14.79930874 38175"
  },
  {
    "name": "KUIPER-00148",
    "noradId": "65769",
    "line1": "1 65769U 25217H   26158.25787514  .00003722  00000+0  56674-3 0  9995",
    "line2": "2 65769  51.9061 346.0567 0001074 133.5490 226.5561 14.75961453 38435"
  },
  {
    "name": "KUIPER-00150",
    "noradId": "65770",
    "line1": "1 65770U 25217J   26157.30809317  .00001540  00000+0  23101-3 0  9993",
    "line2": "2 65770  51.9020  18.7443 0000697 134.0263 226.0757 14.79935784 37895"
  },
  {
    "name": "KUIPER-00151",
    "noradId": "65771",
    "line1": "1 65771U 25217K   26157.85642305  .00000398  00000+0  81206-4 0  9997",
    "line2": "2 65771  51.9035   8.8186 0000796 100.8250 259.2802 14.79929577 38087"
  },
  {
    "name": "KUIPER-00152",
    "noradId": "65772",
    "line1": "1 65772U 25217L   26158.24131055  .00001368  00000+0  20834-3 0  9994",
    "line2": "2 65772  51.9008 354.6003 0000556  86.0484 274.0542 14.79935515 38317"
  },
  {
    "name": "KUIPER-00153",
    "noradId": "65773",
    "line1": "1 65773U 25217M   26158.24670958  .00002708  00000+0  38406-3 0  9998",
    "line2": "2 65773  51.9043 349.6475 0000519 143.3328 216.7670 14.79936586 38388"
  },
  {
    "name": "KUIPER-00155",
    "noradId": "65774",
    "line1": "1 65774U 25217N   26158.14131160  .00002075  00000+0  30107-3 0  9992",
    "line2": "2 65774  51.9016 322.5789 0000381 105.5562 254.5443 14.79935573 38758"
  },
  {
    "name": "KUIPER-00156",
    "noradId": "65775",
    "line1": "1 65775U 25217P   26157.80777431 -.00000275  00000+0 -70187-5 0  9998",
    "line2": "2 65775  51.9049 351.5689 0000683 101.6749 258.4291 14.79926387 38314"
  },
  {
    "name": "KUIPER-00163",
    "noradId": "65777",
    "line1": "1 65777U 25217R   26158.25005787  .00162638  00000+0  64218-3 0  9994",
    "line2": "2 65777  51.8916 317.3719 0004443 275.3705  80.0739 15.85806846  4810"
  },
  {
    "name": "KUIPER-00165",
    "noradId": "65778",
    "line1": "1 65778U 25217S   26158.26967001  .00001238  00000+0  19134-3 0  9997",
    "line2": "2 65778  51.9055 359.4834 0000758 168.9106 191.1873 14.79945370 38243"
  },
  {
    "name": "KUIPER-00166",
    "noradId": "65779",
    "line1": "1 65779U 25217T   26158.24941223  .00000784  00000+0  13187-3 0  9991",
    "line2": "2 65779  51.9048 347.1125 0000535  89.7860 270.3164 14.79932449 38418"
  },
  {
    "name": "KUIPER-00167",
    "noradId": "65780",
    "line1": "1 65780U 25217U   26157.85370735  .00000994  00000+0  15937-3 0  9991",
    "line2": "2 65780  51.8973  11.2452 0000789  83.9950 276.1103 14.79923257 38048"
  },
  {
    "name": "KUIPER-00168",
    "noradId": "65781",
    "line1": "1 65781U 25217V   26158.27777993  .00001369  00000+0  20858-3 0  9991",
    "line2": "2 65781  51.9035 351.9472 0000807  97.5285 262.5769 14.79932141 38351"
  },
  {
    "name": "KUIPER-00169",
    "noradId": "65782",
    "line1": "1 65782U 25217W   26158.27238888  .00000778  00000+0  13105-3 0  9997",
    "line2": "2 65782  51.9031 356.9800 0000899 100.0563 260.0501 14.79933103 38286"
  },
  {
    "name": "KUIPER-00170",
    "noradId": "65783",
    "line1": "1 65783U 25217X   26158.26693224  .00004191  00000+0  57869-3 0  9994",
    "line2": "2 65783  51.8995   1.9695 0000695 106.9910 253.1128 14.79911867 38213"
  },
  {
    "name": "KUIPER-00172",
    "noradId": "65785",
    "line1": "1 65785U 25217Z   26158.25219929  .00004460  00000+0  61387-3 0  9990",
    "line2": "2 65785  51.9006 344.5638 0002024  27.6975 332.4094 14.79918616 38458"
  },
  {
    "name": "KUIPER-00173",
    "noradId": "65786",
    "line1": "1 65786U 25217AA  26158.23862161  .00000819  00000+0  13641-3 0  9995",
    "line2": "2 65786  51.9050 357.1263 0000952 107.7287 252.3779 14.79930215 38275"
  },
  {
    "name": "KUIPER-00174",
    "noradId": "65787",
    "line1": "1 65787U 25217AB  26158.24400925  .00002109  00000+0  30558-3 0  9993",
    "line2": "2 65787  51.9044 352.1441 0000662 100.6472 259.4565 14.79928577 38345"
  },
  {
    "name": "KUIPER-00176",
    "noradId": "65788",
    "line1": "1 65788U 25217AC  26158.29536108  .00000555  00000+0  10181-3 0  9995",
    "line2": "2 65788  51.9007   6.8620 0000683 106.2179 253.8859 14.79932906 38149"
  },
  {
    "name": "KUIPER-00101",
    "noradId": "65947",
    "line1": "1 65947U 25228A   26158.17237394  .00002446  00000+0  34977-3 0  9996",
    "line2": "2 65947  51.8976 324.8706 0000671 100.1947 259.9091 14.79935204 36485"
  },
  {
    "name": "KUIPER-00113",
    "noradId": "65948",
    "line1": "1 65948U 25228B   26158.14401251  .00001441  00000+0  21798-3 0  9990",
    "line2": "2 65948  51.8982 320.0149 0000792 104.4358 255.6693 14.79931442 36547"
  },
  {
    "name": "KUIPER-00117",
    "noradId": "65949",
    "line1": "1 65949U 25228C   26157.63483573  .00001011  00000+0  16156-3 0  9996",
    "line2": "2 65949  51.8986 324.7660 0000551 112.4394 247.6627 14.79933452 36432"
  }
]